CCSDS_OMM_VERS = 2.0
CREATION_DATE  = 
ORIGINATOR     = 

OBJECT_NAME    = STARLINK-36083
OBJECT_ID      = 2025-281K
CENTER_NAME    = EARTH
REF_FRAME      = TEME
TIME_SYSTEM    = UTC
MEAN_ELEMENT_THEORY = SGP/SGP4

EPOCH          = 2025-12-31T07:41:49.245504
MEAN_MOTION    = 15.50683146
ECCENTRICITY   = .00008467
INCLINATION    = 42.9980
RA_OF_ASC_NODE = 10.9543
ARG_OF_PERICENTER = 217.8380
MEAN_ANOMALY   = 142.2421

EPHEMERIS_TYPE = 0
CLASSIFICATION_TYPE = U
NORAD_CAT_ID   = 66857
ELEMENT_SET_NO = 999
REV_AT_EPOCH   = 571
BSTAR          = .18456689E-2
MEAN_MOTION_DOT = .109874E-2
MEAN_MOTION_DDOT = 0

CCSDS_OMM_VERS = 2.0
CREATION_DATE  = 
ORIGINATOR     = 

OBJECT_NAME    = STARLINK-35118
OBJECT_ID      = 2025-281L
CENTER_NAME    = EARTH
REF_FRAME      = TEME
TIME_SYSTEM    = UTC
MEAN_ELEMENT_THEORY = SGP/SGP4

EPOCH          = 2025-12-31T07:41:12.379488
MEAN_MOTION    = 15.50830408
ECCENTRICITY   = .00017356
INCLINATION    = 43.0026
RA_OF_ASC_NODE = 10.9509
ARG_OF_PERICENTER = 278.8734
MEAN_ANOMALY   = 81.1930

EPHEMERIS_TYPE = 0
CLASSIFICATION_TYPE = U
NORAD_CAT_ID   = 66858
ELEMENT_SET_NO = 999
REV_AT_EPOCH   = 571
BSTAR          = .1968814E-2
MEAN_MOTION_DOT = .117969E-2
MEAN_MOTION_DDOT = 0

CCSDS_OMM_VERS = 2.0
CREATION_DATE  = 
ORIGINATOR     = 

OBJECT_NAME    = STARLINK-35646
OBJECT_ID      = 2025-281M
CENTER_NAME    = EARTH
REF_FRAME      = TEME
TIME_SYSTEM    = UTC
MEAN_ELEMENT_THEORY = SGP/SGP4

EPOCH          = 2025-12-31T09:13:35.945184
MEAN_MOTION    = 15.50669556
ECCENTRICITY   = .00007775
INCLINATION    = 42.9969
RA_OF_ASC_NODE = 10.5741
ARG_OF_PERICENTER = 237.4446
MEAN_ANOMALY   = 122.6339

EPHEMERIS_TYPE = 0
CLASSIFICATION_TYPE = U
NORAD_CAT_ID   = 66859
ELEMENT_SET_NO = 999
REV_AT_EPOCH   = 572
BSTAR          = .17053621E-2
MEAN_MOTION_DOT = .101335E-2
MEAN_MOTION_DDOT = 0

CCSDS_OMM_VERS = 2.0
CREATION_DATE  = 
ORIGINATOR     = 

OBJECT_NAME    = STARLINK-35987
OBJECT_ID      = 2025-281N
CENTER_NAME    = EARTH
REF_FRAME      = TEME
TIME_SYSTEM    = UTC
MEAN_ELEMENT_THEORY = SGP/SGP4

EPOCH          = 2025-12-31T12:16:37.794720
MEAN_MOTION    = 15.50644769
ECCENTRICITY   = .00030149
INCLINATION    = 43.0044
RA_OF_ASC_NODE = 9.8063
ARG_OF_PERICENTER = 279.3202
MEAN_ANOMALY   = 80.7317

EPHEMERIS_TYPE = 0
CLASSIFICATION_TYPE = U
NORAD_CAT_ID   = 66860
ELEMENT_SET_NO = 999
REV_AT_EPOCH   = 574
BSTAR          = .1832341E-2
MEAN_MOTION_DOT = .108925E-2
MEAN_MOTION_DDOT = 0

CCSDS_OMM_VERS = 2.0
CREATION_DATE  = 
ORIGINATOR     = 

OBJECT_NAME    = STARLINK-35991
OBJECT_ID      = 2025-281P
CENTER_NAME    = EARTH
REF_FRAME      = TEME
TIME_SYSTEM    = UTC
MEAN_ELEMENT_THEORY = SGP/SGP4

EPOCH          = 2025-12-31T12:18:06.773760
MEAN_MOTION    = 15.50634094
ECCENTRICITY   = .00019502
INCLINATION    = 43.0028
RA_OF_ASC_NODE = 9.8150
ARG_OF_PERICENTER = 270.0815
MEAN_ANOMALY   = 89.9821

EPHEMERIS_TYPE = 0
CLASSIFICATION_TYPE = U
NORAD_CAT_ID   = 66861
ELEMENT_SET_NO = 999
REV_AT_EPOCH   = 574
BSTAR          = .19688702E-2
MEAN_MOTION_DOT = .117137E-2
MEAN_MOTION_DDOT = 0

CCSDS_OMM_VERS = 2.0
CREATION_DATE  = 
ORIGINATOR     = 

OBJECT_NAME    = STARLINK-35974
OBJECT_ID      = 2025-281Q
CENTER_NAME    = EARTH
REF_FRAME      = TEME
TIME_SYSTEM    = UTC
MEAN_ELEMENT_THEORY = SGP/SGP4

EPOCH          = 2025-12-31T07:40:20.403840
MEAN_MOTION    = 15.50618095
ECCENTRICITY   = .0000607
INCLINATION    = 43.0000
RA_OF_ASC_NODE = 10.9466
ARG_OF_PERICENTER = 224.2355
MEAN_ANOMALY   = 135.8457

EPHEMERIS_TYPE = 0
CLASSIFICATION_TYPE = U
NORAD_CAT_ID   = 66862
ELEMENT_SET_NO = 999
REV_AT_EPOCH   = 571
BSTAR          = .22967E-2
MEAN_MOTION_DOT = .136969E-2
MEAN_MOTION_DDOT = 0

CCSDS_OMM_VERS = 2.0
CREATION_DATE  = 
ORIGINATOR     = 

OBJECT_NAME    = STARLINK-36134
OBJECT_ID      = 2025-281R
CENTER_NAME    = EARTH
REF_FRAME      = TEME
TIME_SYSTEM    = UTC
MEAN_ELEMENT_THEORY = SGP/SGP4

EPOCH          = 2025-12-31T12:17:36.843072
MEAN_MOTION    = 15.50667548
ECCENTRICITY   = .0004065
INCLINATION    = 43.0055
RA_OF_ASC_NODE = 9.8136
ARG_OF_PERICENTER = 279.1467
MEAN_ANOMALY   = 80.8934

EPHEMERIS_TYPE = 0
CLASSIFICATION_TYPE = U
NORAD_CAT_ID   = 66863
ELEMENT_SET_NO = 999
REV_AT_EPOCH   = 574
BSTAR          = .18261265E-2
MEAN_MOTION_DOT = .108652E-2
MEAN_MOTION_DDOT = 0

CCSDS_OMM_VERS = 2.0
CREATION_DATE  = 
ORIGINATOR     = 

OBJECT_NAME    = STARLINK-36070
OBJECT_ID      = 2025-281S
CENTER_NAME    = EARTH
REF_FRAME      = TEME
TIME_SYSTEM    = UTC
MEAN_ELEMENT_THEORY = SGP/SGP4

EPOCH          = 2025-12-31T07:38:51.652032
MEAN_MOTION    = 15.50605945
ECCENTRICITY   = .0002114
INCLINATION    = 43.0028
RA_OF_ASC_NODE = 10.9377
ARG_OF_PERICENTER = 273.2949
MEAN_ANOMALY   = 86.7669

EPHEMERIS_TYPE = 0
CLASSIFICATION_TYPE = U
NORAD_CAT_ID   = 66864
ELEMENT_SET_NO = 999
REV_AT_EPOCH   = 571
BSTAR          = .22856E-2
MEAN_MOTION_DOT = .136238E-2
MEAN_MOTION_DDOT = 0

CCSDS_OMM_VERS = 2.0
CREATION_DATE  = 
ORIGINATOR     = 

OBJECT_NAME    = STARLINK-36117
OBJECT_ID      = 2025-281T
CENTER_NAME    = EARTH
REF_FRAME      = TEME
TIME_SYSTEM    = UTC
MEAN_ELEMENT_THEORY = SGP/SGP4

EPOCH          = 2025-12-31T10:43:24.591360
MEAN_MOTION    = 15.50773395
ECCENTRICITY   = .00021264
INCLINATION    = 42.9932
RA_OF_ASC_NODE = 10.1828
ARG_OF_PERICENTER = 51.0456
MEAN_ANOMALY   = 309.0593

EPHEMERIS_TYPE = 0
CLASSIFICATION_TYPE = U
NORAD_CAT_ID   = 66865
ELEMENT_SET_NO = 999
REV_AT_EPOCH   = 573
BSTAR          = .26118515E-2
MEAN_MOTION_DOT = .157085E-2
MEAN_MOTION_DDOT = 0

CCSDS_OMM_VERS = 2.0
CREATION_DATE  = 
ORIGINATOR     = 

OBJECT_NAME    = STARLINK-36126
OBJECT_ID      = 2025-281U
CENTER_NAME    = EARTH
REF_FRAME      = TEME
TIME_SYSTEM    = UTC
MEAN_ELEMENT_THEORY = SGP/SGP4

EPOCH          = 2025-12-31T07:37:22.393920
MEAN_MOTION    = 15.50681742
ECCENTRICITY   = .0000874
INCLINATION    = 43.0000
RA_OF_ASC_NODE = 10.9298
ARG_OF_PERICENTER = 242.0601
MEAN_ANOMALY   = 118.0170

EPHEMERIS_TYPE = 0
CLASSIFICATION_TYPE = U
NORAD_CAT_ID   = 66866
ELEMENT_SET_NO = 999
REV_AT_EPOCH   = 570
BSTAR          = .18003E-2
MEAN_MOTION_DOT = .107119E-2
MEAN_MOTION_DDOT = 0

CCSDS_OMM_VERS = 2.0
CREATION_DATE  = 
ORIGINATOR     = 

OBJECT_NAME    = STARLINK-36101
OBJECT_ID      = 2025-281V
CENTER_NAME    = EARTH
REF_FRAME      = TEME
TIME_SYSTEM    = UTC
MEAN_ELEMENT_THEORY = SGP/SGP4

EPOCH          = 2025-12-31T07:36:52.940160
MEAN_MOTION    = 15.50726087
ECCENTRICITY   = .000256
INCLINATION    = 42.9944
RA_OF_ASC_NODE = 10.9272
ARG_OF_PERICENTER = 133.4970
MEAN_ANOMALY   = 226.6103

EPHEMERIS_TYPE = 0
CLASSIFICATION_TYPE = U
NORAD_CAT_ID   = 66867
ELEMENT_SET_NO = 999
REV_AT_EPOCH   = 570
BSTAR          = .19821E-2
MEAN_MOTION_DOT = .11834E-2
MEAN_MOTION_DDOT = 0

CCSDS_OMM_VERS = 2.0
CREATION_DATE  = 
ORIGINATOR     = 

OBJECT_NAME    = STARLINK-36108
OBJECT_ID      = 2025-281W
CENTER_NAME    = EARTH
REF_FRAME      = TEME
TIME_SYSTEM    = UTC
MEAN_ELEMENT_THEORY = SGP/SGP4

EPOCH          = 2025-12-31T07:36:23.223744
MEAN_MOTION    = 15.50615533
ECCENTRICITY   = .00012886
INCLINATION    = 43.0032
RA_OF_ASC_NODE = 10.9252
ARG_OF_PERICENTER = 266.0737
MEAN_ANOMALY   = 93.9976

EPHEMERIS_TYPE = 0
CLASSIFICATION_TYPE = U
NORAD_CAT_ID   = 66868
ELEMENT_SET_NO = 999
REV_AT_EPOCH   = 570
BSTAR          = .17058083E-2
MEAN_MOTION_DOT = .101163E-2
MEAN_MOTION_DDOT = 0

