STARLINK-36083          
1 66857U 25281K   25365.32070886  .00109874  00000+0  18457-2 0  9990
2 66857  42.9980  10.9543 0000846 217.8380 142.2421 15.50683146  5713
STARLINK-35118          
1 66858U 25281L   25365.32028217  .00117969  00000+0  19688-2 0  9993
2 66858  43.0026  10.9509 0001735 278.8734  81.1930 15.50830408  5718
STARLINK-35646          
1 66859U 25281M   25365.38444381  .00101335  00000+0  17054-2 0  9999
2 66859  42.9969  10.5741 0000777 237.4446 122.6339 15.50669556  5722
STARLINK-35987          
1 66860U 25281N   25365.51154855  .00108925  00000+0  18323-2 0  9992
2 66860  43.0044   9.8063 0003014 279.3202  80.7317 15.50644769  5741
STARLINK-35991          
1 66861U 25281P   25365.51257840  .00117137  00000+0  19689-2 0  9992
2 66861  43.0028   9.8150 0001950 270.0815  89.9821 15.50634094  5747
STARLINK-35974          
1 66862U 25281Q   25365.31968060  .00136969  00000+0  22967-2 0  9991
2 66862  43.0000  10.9466 0000607 224.2355 135.8457 15.50618095  5715
STARLINK-36134          
1 66863U 25281R   25365.51223198  .00108652  00000+0  18261-2 0  9990
2 66863  43.0055   9.8136 0004065 279.1467  80.8934 15.50667548  5741
STARLINK-36070          
1 66864U 25281S   25365.31865338  .00136238  00000+0  22856-2 0  9993
2 66864  43.0028  10.9377 0002114 273.2949  86.7669 15.50605945  5715
STARLINK-36117          
1 66865U 25281T   25365.44681240  .00157085  00000+0  26119-2 0  9995
2 66865  42.9932  10.1828 0002126  51.0456 309.0593 15.50773395  5733
STARLINK-36126          
1 66866U 25281U   25365.31762030  .00107119  00000+0  18003-2 0  9995
2 66866  43.0000  10.9298 0000874 242.0601 118.0170 15.50681742  5703
STARLINK-36101          
1 66867U 25281V   25365.31727940  .00118340  00000+0  19821-2 0  9994
2 66867  42.9944  10.9272 0002560 133.4970 226.6103 15.50726087  5701
STARLINK-36108          
1 66868U 25281W   25365.31693546  .00101163  00000+0  17058-2 0  9994
2 66868  43.0032  10.9252 0001288 266.0737  93.9976 15.50615533  5706
